[{"OBJECT_NAME":"IRIDIUM 33 DEB","OBJECT_ID":"1997-051BV","EPOCH":"2026-03-02T12:26:24.107712","MEAN_MOTION":14.89860452,"ECCENTRICITY":0.00025212,"INCLINATION":86.2485,"RA_OF_ASC_NODE":251.7487,"ARG_OF_PERICENTER":127.42,"MEAN_ANOMALY":261.1817,"EPHEMERIS_TYPE":0,"CLASSIFICATION_TYPE":"U","NORAD_CAT_ID":33960,"ELEMENT_SET_NO":999,"REV_AT_EPOCH":90053,"BSTAR":0.0029709567,"MEAN_MOTION_DOT":0.00028651,"MEAN_MOTION_DDOT":0},{"OBJECT_NAME":"IRIDIUM 33 DEB","OBJECT_ID":"1997-051CB","EPOCH":"2026-03-02T19:36:44.493696","MEAN_MOTION":14.50004099,"ECCENTRICITY":0.0005683,"INCLINATION":86.396,"RA_OF_ASC_NODE":11.6454,"ARG_OF_PERICENTER":312.0811,"MEAN_ANOMALY":109.0865,"EPHEMERIS_TYPE":0,"CLASSIFICATION_TYPE":"U","NORAD_CAT_ID":33966,"ELEMENT_SET_NO":999,"REV_AT_EPOCH":89602,"BSTAR":0.00073831,"MEAN_MOTION_DOT":2.878e-5,"MEAN_MOTION_DDOT":0},{"OBJECT_NAME":"IRIDIUM 33 DEB","OBJECT_ID":"1997-051CE","EPOCH":"2026-03-02T19:07:58.912896","MEAN_MOTION":14.49960522,"ECCENTRICITY":0.0006393,"INCLINATION":86.3503,"RA_OF_ASC_NODE":343.0317,"ARG_OF_PERICENTER":185.2273,"MEAN_ANOMALY":174.8866,"EPHEMERIS_TYPE":0,"CLASSIFICATION_TYPE":"U","NORAD_CAT_ID":34071,"ELEMENT_SET_NO":999,"REV_AT_EPOCH":89494,"BSTAR":0.00073312,"MEAN_MOTION_DOT":2.856e-5,"MEAN_MOTION_DDOT":0},{"OBJECT_NAME":"IRIDIUM 33 DEB","OBJECT_ID":"1997-051CL","EPOCH":"2026-03-02T09:22:49.374336","MEAN_MOTION":14.66452219,"ECCENTRICITY":0.00118811,"INCLINATION":86.3882,"RA_OF_ASC_NODE":16.3675,"ARG_OF_PERICENTER":105.1663,"MEAN_ANOMALY":13.5715,"EPHEMERIS_TYPE":0,"CLASSIFICATION_TYPE":"U","NORAD_CAT_ID":34077,"ELEMENT_SET_NO":999,"REV_AT_EPOCH":89499,"BSTAR":0.0018871775,"MEAN_MOTION_DOT":0.00010482,"MEAN_MOTION_DDOT":0},{"OBJECT_NAME":"IRIDIUM 33 DEB","OBJECT_ID":"1997-051CN","EPOCH":"2026-03-02T18:00:04.430592","MEAN_MOTION":14.86785636,"ECCENTRICITY":0.000987,"INCLINATION":86.3796,"RA_OF_ASC_NODE":332.192,"ARG_OF_PERICENTER":63.07,"MEAN_ANOMALY":350.5116,"EPHEMERIS_TYPE":0,"CLASSIFICATION_TYPE":"U","NORAD_CAT_ID":34079,"ELEMENT_SET_NO":999,"REV_AT_EPOCH":90165,"BSTAR":0.0020906,"MEAN_MOTION_DOT":0.00018689,"MEAN_MOTION_DDOT":0},{"OBJECT_NAME":"IRIDIUM 33 DEB","OBJECT_ID":"1997-051CX","EPOCH":"2026-03-02T18:46:25.430592","MEAN_MOTION":14.97398721,"ECCENTRICITY":0.0002196,"INCLINATION":86.3872,"RA_OF_ASC_NODE":353.7854,"ARG_OF_PERICENTER":50.8736,"MEAN_ANOMALY":332.0855,"EPHEMERIS_TYPE":0,"CLASSIFICATION_TYPE":"U","NORAD_CAT_ID":34088,"ELEMENT_SET_NO":999,"REV_AT_EPOCH":89937,"BSTAR":0.0037503,"MEAN_MOTION_DOT":0.00043828,"MEAN_MOTION_DDOT":0},{"OBJECT_NAME":"IRIDIUM 33 DEB","OBJECT_ID":"1997-051DA","EPOCH":"2026-03-02T08:08:33.411840","MEAN_MOTION":14.88964776,"ECCENTRICITY":0.003398,"INCLINATION":86.3433,"RA_OF_ASC_NODE":30.1745,"ARG_OF_PERICENTER":23.5915,"MEAN_ANOMALY":336.686,"EPHEMERIS_TYPE":0,"CLASSIFICATION_TYPE":"U","NORAD_CAT_ID":34091,"ELEMENT_SET_NO":999,"REV_AT_EPOCH":89048,"BSTAR":0.0057071627,"MEAN_MOTION_DOT":0.00054576,"MEAN_MOTION_DDOT":0},{"OBJECT_NAME":"IRIDIUM 33 DEB","OBJECT_ID":"1997-051DG","EPOCH":"2026-03-02T18:30:59.537952","MEAN_MOTION":14.35488218,"ECCENTRICITY":0.0083672,"INCLINATION":86.2025,"RA_OF_ASC_NODE":326.0756,"ARG_OF_PERICENTER":98.5463,"MEAN_ANOMALY":262.5226,"EPHEMERIS_TYPE":0,"CLASSIFICATION_TYPE":"U","NORAD_CAT_ID":34097,"ELEMENT_SET_NO":999,"REV_AT_EPOCH":88267,"BSTAR":0.0012815,"MEAN_MOTION_DOT":3.854e-5,"MEAN_MOTION_DDOT":0},{"OBJECT_NAME":"IRIDIUM 33 DEB","OBJECT_ID":"1997-051DY","EPOCH":"2026-03-02T15:33:51.295104","MEAN_MOTION":14.4304443,"ECCENTRICITY":0.0051626,"INCLINATION":86.2097,"RA_OF_ASC_NODE":296.9251,"ARG_OF_PERICENTER":188.6069,"MEAN_ANOMALY":171.4252,"EPHEMERIS_TYPE":0,"CLASSIFICATION_TYPE":"U","NORAD_CAT_ID":34145,"ELEMENT_SET_NO":999,"REV_AT_EPOCH":88790,"BSTAR":0.00090403,"MEAN_MOTION_DOT":3.097e-5,"MEAN_MOTION_DDOT":0},{"OBJECT_NAME":"IRIDIUM 33 DEB","OBJECT_ID":"1997-051DZ","EPOCH":"2026-03-02T18:40:04.939680","MEAN_MOTION":14.49694573,"ECCENTRICITY":0.0026189,"INCLINATION":86.2845,"RA_OF_ASC_NODE":314.4435,"ARG_OF_PERICENTER":323.8235,"MEAN_ANOMALY":107.3584,"EPHEMERIS_TYPE":0,"CLASSIFICATION_TYPE":"U","NORAD_CAT_ID":34146,"ELEMENT_SET_NO":999,"REV_AT_EPOCH":89266,"BSTAR":0.00076634,"MEAN_MOTION_DOT":2.98e-5,"MEAN_MOTION_DDOT":0},{"OBJECT_NAME":"IRIDIUM 33 DEB","OBJECT_ID":"1997-051EN","EPOCH":"2026-03-02T07:19:47.685792","MEAN_MOTION":14.38726904,"ECCENTRICITY":0.00294502,"INCLINATION":86.3543,"RA_OF_ASC_NODE":14.304,"ARG_OF_PERICENTER":29.9226,"MEAN_ANOMALY":330.3648,"EPHEMERIS_TYPE":0,"CLASSIFICATION_TYPE":"U","NORAD_CAT_ID":34159,"ELEMENT_SET_NO":999,"REV_AT_EPOCH":89103,"BSTAR":0.00057941565,"MEAN_MOTION_DOT":1.806e-5,"MEAN_MOTION_DDOT":0},{"OBJECT_NAME":"IRIDIUM 33 DEB","OBJECT_ID":"1997-051ES","EPOCH":"2026-03-02T18:14:47.580288","MEAN_MOTION":14.4567215,"ECCENTRICITY":0.0019037,"INCLINATION":86.3311,"RA_OF_ASC_NODE":328.0981,"ARG_OF_PERICENTER":230.9519,"MEAN_ANOMALY":183.53,"EPHEMERIS_TYPE":0,"CLASSIFICATION_TYPE":"U","NORAD_CAT_ID":34350,"ELEMENT_SET_NO":999,"REV_AT_EPOCH":89449,"BSTAR":0.00039887,"MEAN_MOTION_DOT":1.433e-5,"MEAN_MOTION_DDOT":0},{"OBJECT_NAME":"IRIDIUM 33 DEB","OBJECT_ID":"1997-051FJ","EPOCH":"2026-03-02T19:41:42.766368","MEAN_MOTION":14.54923047,"ECCENTRICITY":0.00177,"INCLINATION":86.372,"RA_OF_ASC_NODE":14.4504,"ARG_OF_PERICENTER":228.6562,"MEAN_ANOMALY":159.6681,"EPHEMERIS_TYPE":0,"CLASSIFICATION_TYPE":"U","NORAD_CAT_ID":34366,"ELEMENT_SET_NO":999,"REV_AT_EPOCH":89346,"BSTAR":0.0014616,"MEAN_MOTION_DOT":6.316e-5,"MEAN_MOTION_DDOT":0},{"OBJECT_NAME":"IRIDIUM 33 DEB","OBJECT_ID":"1997-051FT","EPOCH":"2026-03-02T06:52:04.135872","MEAN_MOTION":14.1816219,"ECCENTRICITY":0.01006286,"INCLINATION":86.4353,"RA_OF_ASC_NODE":150.6609,"ARG_OF_PERICENTER":233.3626,"MEAN_ANOMALY":188.1539,"EPHEMERIS_TYPE":0,"CLASSIFICATION_TYPE":"U","NORAD_CAT_ID":34375,"ELEMENT_SET_NO":999,"REV_AT_EPOCH":87839,"BSTAR":0.00053504449,"MEAN_MOTION_DOT":1.172e-5,"MEAN_MOTION_DDOT":0},{"OBJECT_NAME":"IRIDIUM 33 DEB","OBJECT_ID":"1997-051FU","EPOCH":"2026-03-02T17:57:28.820736","MEAN_MOTION":14.64395524,"ECCENTRICITY":0.0022407,"INCLINATION":86.3006,"RA_OF_ASC_NODE":330.5304,"ARG_OF_PERICENTER":260.87,"MEAN_ANOMALY":98.9978,"EPHEMERIS_TYPE":0,"CLASSIFICATION_TYPE":"U","NORAD_CAT_ID":34376,"ELEMENT_SET_NO":999,"REV_AT_EPOCH":89177,"BSTAR":0.0019325,"MEAN_MOTION_DOT":0.00010278,"MEAN_MOTION_DDOT":0},{"OBJECT_NAME":"IRIDIUM 33 DEB","OBJECT_ID":"1997-051GB","EPOCH":"2026-03-02T18:47:03.202944","MEAN_MOTION":15.01610571,"ECCENTRICITY":0.0008164,"INCLINATION":86.3958,"RA_OF_ASC_NODE":334.9234,"ARG_OF_PERICENTER":158.8443,"MEAN_ANOMALY":259.0959,"EPHEMERIS_TYPE":0,"CLASSIFICATION_TYPE":"U","NORAD_CAT_ID":34486,"ELEMENT_SET_NO":999,"REV_AT_EPOCH":90185,"BSTAR":0.0027507,"MEAN_MOTION_DOT":0.00035851,"MEAN_MOTION_DDOT":0}]
