IRIDIUM 33 DEB          
1 33960U 97051BV  26061.51833458  .00028651  00000+0  29710-2 0  9997
2 33960  86.2485 251.7487 0002521 127.4200 261.1817 14.89860452900536
IRIDIUM 33 DEB          
1 33966U 97051CB  26061.81718164  .00002878  00000+0  73831-3 0  9999
2 33966  86.3960  11.6454 0005683 312.0811 109.0865 14.50004099896026
IRIDIUM 33 DEB          
1 34071U 97051CE  26061.79720964  .00002856  00000+0  73312-3 0  9995
2 34071  86.3503 343.0317 0006393 185.2273 174.8866 14.49960522894948
IRIDIUM 33 DEB          
1 34077U 97051CL  26061.39084924  .00010482  00000+0  18872-2 0  9999
2 34077  86.3882  16.3675 0011881 105.1663  13.5715 14.66452219894998
IRIDIUM 33 DEB          
1 34079U 97051CN  26061.75005128  .00018689  00000+0  20906-2 0  9998
2 34079  86.3796 332.1920 0009870  63.0700 350.5116 14.86785636901650
IRIDIUM 33 DEB          
1 34088U 97051CX  26061.78223878  .00043828  00000+0  37503-2 0  9999
2 34088  86.3872 353.7854 0002196  50.8736 332.0855 14.97398721899374
IRIDIUM 33 DEB          
1 34091U 97051DA  26061.33927560  .00054576  00000+0  57072-2 0  9998
2 34091  86.3433  30.1745 0033980  23.5915 336.6860 14.88964776890485
IRIDIUM 33 DEB          
1 34097U 97051DG  26061.77152243  .00003854  00000+0  12815-2 0  9999
2 34097  86.2025 326.0756 0083672  98.5463 262.5226 14.35488218882678
IRIDIUM 33 DEB          
1 34145U 97051DY  26061.64851036  .00003097  00000+0  90403-3 0  9994
2 34145  86.2097 296.9251 0051626 188.6069 171.4252 14.43044430887904
IRIDIUM 33 DEB          
1 34146U 97051DZ  26061.77783495  .00002980  00000+0  76634-3 0  9992
2 34146  86.2845 314.4435 0026189 323.8235 107.3584 14.49694573892660
IRIDIUM 33 DEB          
1 34159U 97051EN  26061.30541303  .00001806  00000+0  57942-3 0  9992
2 34159  86.3543  14.3040 0029450  29.9226 330.3648 14.38726904891037
IRIDIUM 33 DEB          
1 34350U 97051ES  26061.76027292  .00001433  00000+0  39887-3 0  9995
2 34350  86.3311 328.0981 0019037 230.9519 183.5300 14.45672150894498
IRIDIUM 33 DEB          
1 34366U 97051FJ  26061.82063387  .00006316  00000+0  14616-2 0  9991
2 34366  86.3720  14.4504 0017700 228.6562 159.6681 14.54923047893469
IRIDIUM 33 DEB          
1 34375U 97051FT  26061.28615898  .00001172  00000+0  53504-3 0  9996
2 34375  86.4353 150.6609 0100628 233.3626 188.1539 14.18162190878395
IRIDIUM 33 DEB          
1 34376U 97051FU  26061.74825024  .00010278  00000+0  19325-2 0  9991
2 34376  86.3006 330.5304 0022407 260.8700  98.9978 14.64395524891779
IRIDIUM 33 DEB          
1 34486U 97051GB  26061.78267596  .00035851  00000+0  27507-2 0  9996
2 34486  86.3958 334.9234 0008164 158.8443 259.0959 15.01610571901855
